OBJECT_NAME,OBJECT_ID,EPOCH,MEAN_MOTION,ECCENTRICITY,INCLINATION,RA_OF_ASC_NODE,ARG_OF_PERICENTER,MEAN_ANOMALY,EPHEMERIS_TYPE,CLASSIFICATION_TYPE,NORAD_CAT_ID,ELEMENT_SET_NO,REV_AT_EPOCH,BSTAR,MEAN_MOTION_DOT,MEAN_MOTION_DDOT
ONEWEB-0054,2020-008AD,2026-06-13T21:01:01.268832,13.10370112,.0001866,87.8842,36.9264,83.2212,276.9127,0,U,45158,999,30759,.11919E-2,.429E-5,0
ONEWEB-0056,2020-008AE,2026-06-13T16:40:17.994144,13.10378582,.0002012,87.8845,36.9565,89.5415,270.5942,0,U,45159,999,30772,.73203E-3,.268E-5,0
ONEWEB-0057,2020-008AF,2026-06-13T15:14:37.893984,13.10372440,.0002202,87.8837,36.9809,74.0802,286.0568,0,U,45160,999,30788,.19249E-2,.685E-5,0
ONEWEB-0058,2020-008AG,2026-06-13T16:45:27.423648,13.10375923,.0001598,87.8833,36.9743,81.9659,278.1650,0,U,45161,999,30796,.10561E-2,.381E-5,0
ONEWEB-0059,2020-008AH,2026-06-13T16:40:40.454688,13.10376115,.0001732,87.8836,36.9739,77.1509,282.9812,0,U,45162,999,30786,.51856E-3,.194E-5,0
ONEWEB-0062,2020-008AJ,2026-06-13T17:13:44.978880,13.10370642,.0001441,87.8839,36.9561,91.5899,268.5393,0,U,45163,999,30773,.15793E-2,.564E-5,0
ONEWEB-0065,2020-008AK,2026-06-13T16:11:34.074816,13.10372987,.0002162,87.8841,36.9729,81.6164,278.5208,0,U,45164,999,30742,-.17535E-2,-.599E-5,0
ONEWEB-0066,2020-020A,2026-06-13T20:46:55.355808,13.11416535,.0001715,87.8890,21.7327,79.7458,280.3864,0,U,45424,999,30224,-.13636E-2,-.471E-5,0
ONEWEB-0067,2020-020B,2026-06-13T19:51:39.811104,13.11423173,.0001959,87.8910,21.6613,82.3089,277.8262,0,U,45425,999,30229,.14223E-2,.517E-5,0
ONEWEB-0080,2020-020C,2026-06-13T19:50:59.928000,13.11416654,.0001566,87.8901,21.7361,92.5239,267.6068,0,U,45426,999,30226,.14795E-2,.537E-5,0
ONEWEB-0090,2020-020D,2026-06-13T20:32:28.646304,13.11415220,.0001772,87.8899,21.7346,87.1951,272.9380,0,U,45427,999,30223,-.13948E-2,-.482E-5,0
ONEWEB-0061,2020-020E,2026-06-13T21:18:28.888704,13.11419804,.0001761,87.8897,21.7135,84.4376,275.6953,0,U,45428,999,30219,.9979E-3,.366E-5,0
ONEWEB-0081,2020-020F,2026-06-13T15:22:12.388224,13.11418397,.0001857,87.8895,21.7734,78.5890,281.5446,0,U,45429,999,30227,-.14916E-2,-.516E-5,0
ONEWEB-0069,2020-020G,2026-06-13T15:24:50.488992,13.11417602,.0001846,87.8896,21.7756,82.2393,277.8945,0,U,45430,999,30220,-.61362E-3,-.205E-5,0
ONEWEB-0031,2020-020H,2026-06-13T19:55:40.791936,13.11416649,.0001668,87.8886,21.7433,89.6700,270.4619,0,U,45431,999,30221,.13628E-2,.496E-5,0
ONEWEB-0027,2020-020J,2026-06-13T20:14:53.297952,13.16703086,.0001934,87.9136,6.5298,93.9916,266.1436,0,U,45432,999,30591,.69668E-1,.26767E-3,0
ONEWEB-0064,2020-020K,2026-06-13T19:53:14.508960,13.11415033,.0001769,87.8890,21.7354,90.9456,269.1874,0,U,45433,999,30224,.13628E-2,.496E-5,0
ONEWEB-0018,2020-020L,2026-06-13T20:39:26.146656,13.11433792,.0001565,87.8891,21.7281,77.3838,282.7465,0,U,45434,999,30219,-.86473E-2,-.3052E-4,0
ONEWEB-0083,2020-020M,2026-06-13T20:25:10.163712,13.11415621,.0001744,87.8896,21.7238,86.3589,273.7738,0,U,45435,999,30223,-.10808E-2,-.37E-5,0
ONEWEB-0095,2020-020N,2026-06-13T20:12:59.015808,13.11419483,.0002437,87.8896,21.7341,95.3956,264.7450,0,U,45436,999,30223,-.98587E-4,-.22E-6,0
ONEWEB-0092,2020-020P,2026-06-13T15:27:08.866368,13.11535717,.0002029,87.8898,21.7655,82.7902,277.3457,0,U,45437,999,30232,-.56553E-1,-.20022E-3,0
ONEWEB-0085,2020-020Q,2026-06-13T20:24:45.946656,13.11414835,.000181,87.8890,21.7308,85.7619,274.3716,0,U,45438,999,30223,-.10327E-2,-.353E-5,0
ONEWEB-0096,2020-020R,2026-06-13T20:27:25.021152,13.11421380,.0001884,87.8898,21.7263,88.0148,272.1195,0,U,45439,999,30222,-.93318E-3,-.318E-5,0
ONEWEB-0037,2020-020S,2026-06-13T21:17:09.811104,13.11913811,.0001892,87.8908,21.6932,85.9454,274.1891,0,U,45440,999,30226,.78549E-3,.293E-5,0
ONEWEB-0042,2020-020T,2026-06-13T20:12:34.071264,13.11411869,.0001916,87.8909,21.7246,82.4059,277.7287,0,U,45441,999,30222,.64407E-3,.241E-5,0
ONEWEB-0098,2020-020U,2026-06-13T20:06:39.910752,13.11415959,.0001737,87.8894,21.7348,86.5168,273.6159,0,U,45442,999,30220,.6318E-3,.237E-5,0
ONEWEB-0055,2020-020V,2026-06-13T21:25:50.478240,13.11417869,.0001755,87.8897,21.7228,86.9483,273.1845,0,U,45443,999,30218,.14863E-2,.539E-5,0
ONEWEB-0093,2020-020W,2026-06-13T20:56:53.395008,13.11418072,.0001866,87.8897,21.7198,73.4145,286.7188,0,U,45444,999,30224,-.77427E-3,-.262E-5,0
ONEWEB-0029,2020-020X,2026-06-13T16:06:22.404960,13.11419446,.00015,87.8886,21.7689,59.3529,300.7747,0,U,45445,999,30219,.15738E-2,.571E-5,0
ONEWEB-0068,2020-020Y,2026-06-13T15:26:54.254400,13.11419849,.0001769,87.8900,21.7690,78.5093,281.6234,0,U,45446,999,30213,-.63482E-3,-.212E-5,0
ONEWEB-0046,2020-020Z,2026-06-13T15:14:52.786752,13.11416686,.0002036,87.8892,21.7770,79.6162,280.5195,0,U,45447,999,30214,-.13627E-2,-.47E-5,0
